NORAD_CAT_ID,OBJECT_NAME,OBJECT_TYPE,EPOCH,MEAN_MOTION,ECCENTRICITY,INCLINATION,RA_OF_ASC_NODE,ARG_OF_PERICENTER,MEAN_ANOMALY,BSTAR,MEAN_MOTION_DOT,MEAN_MOTION_DDOT,TLE_LINE0,TLE_LINE1,TLE_LINE2,SEMIMAJOR_AXIS,PERIOD,APOGEE,PERIGEE,DECAYED
56463.0,STARLINK-6051,PAYLOAD,2024-02-20 21:51:37,14.98322119,0.0003105,69.9985,229.9582,268.9028,91.1775,6.3665e-05,6.67e-06,0.0,0 STARLINK-6051,1 56463U 23064R   24051.91085134  .00000667  00000-0  63665-4 0  9991,2 56463  69.9985 229.9582 0003105 268.9028  91.1775 14.98322119 43235,6950.217,96.108,574.24,569.924,0.0
56463.0,STARLINK-6051,PAYLOAD,2024-02-21 13:52:58,14.98325682,0.0003106,69.9987,228.275,269.1541,90.9262,0.00011668,1.299e-05,0.0,0 STARLINK-6051,1 56463U 23064R   24052.57845037  .00001299  00000-0  11668-3 0  9997,2 56463  69.9987 228.2750 0003106 269.1541  90.9262 14.98325682 43337,6950.206,96.107,574.23,569.913,0.0
56463.0,STARLINK-6051,PAYLOAD,2024-02-21 21:53:38,14.98327841,0.0003101,69.999,227.4334,269.563,90.5173,0.00012508,1.4e-05,0.0,0 STARLINK-6051,1 56463U 23064R   24052.91224963  .00001400  00000-0  12508-3 0  9992,2 56463  69.9990 227.4334 0003101 269.5630  90.5173 14.98327841 43389,6950.2,96.107,574.22,569.909,0.0
56463.0,STARLINK-6051,PAYLOAD,2024-02-22 04:18:10,14.98328449,0.0003095,69.9991,226.7601,269.7013,90.3791,9.9482e-05,1.094e-05,0.0,0 STARLINK-6051,1 56463U 23064R   24053.17929021  .00001094  00000-0  99482-4 0  9994,2 56463  69.9991 226.7601 0003095 269.7013  90.3791 14.98328449 43781,6950.198,96.107,574.214,569.912,0.0
56463.0,STARLINK-6051,PAYLOAD,2024-02-22 13:54:59,14.98330027,0.0003087,69.9991,225.7502,269.4681,90.6124,6.867e-05,7.26e-06,0.0,0 STARLINK-6051,1 56463U 23064R   24053.57985032  .00000726  00000-0  68670-4 0  9998,2 56463  69.9991 225.7502 0003087 269.4681  90.6124 14.98330027 43484,6950.193,96.107,574.203,569.912,0.0
56463.0,STARLINK-6051,PAYLOAD,2024-02-22 21:55:39,14.98332046,0.0003067,69.9993,224.9087,269.3699,90.7108,7.9689e-05,8.58e-06,0.0,0 STARLINK-6051,1 56463U 23064R   24053.91364839  .00000858  00000-0  79689-4 0  9990,2 56463  69.9993 224.9087 0003067 269.3699  90.7108 14.98332046 43533,6950.187,96.107,574.183,569.92,0.0
56463.0,STARLINK-6051,PAYLOAD,2024-02-23 12:20:51,14.9833235,0.0003017,69.9997,223.3939,271.0216,89.0597,6.3331e-06,-1.7e-07,0.0,0 STARLINK-6051,1 56463U 23064R   24054.51448955 -.00000017  00000-0  63331-5 0  9995,2 56463  69.9997 223.3939 0003017 271.0216  89.0597 14.98332350 43986,6950.186,96.107,574.147,569.954,0.0
56463.0,STARLINK-6051,PAYLOAD,2024-02-23 13:56:59,14.98331937,0.0003024,69.9997,223.2256,270.1669,89.9143,1.393e-06,-7.6e-07,0.0,0 STARLINK-6051,1 56463U 23064R   24054.58124993 -.00000076  00000-0  13930-5 0  9990,2 56463  69.9997 223.2256 0003024 270.1669  89.9143 14.98331937 43635,6950.187,96.107,574.154,569.95,0.0
56463.0,STARLINK-6051,PAYLOAD,2024-02-23 21:57:40,14.98333944,0.000302,69.9997,222.384,270.0999,89.9814,2.1559e-05,1.64e-06,0.0,0 STARLINK-6051,1 56463U 23064R   24054.91504741  .00000164  00000-0  21559-4 0  9992,2 56463  69.9997 222.3840 0003020 270.0999  89.9814 14.98333944 43685,6950.181,96.107,574.145,569.947,0.0
56463.0,STARLINK-6051,PAYLOAD,2024-02-24 12:22:52,14.98330645,0.0002972,69.9997,220.8689,269.6173,90.4645,-1.957e-05,-3.26e-06,0.0,0 STARLINK-6051,1 56463U 23064R   24055.51589001 -.00000326  00000-0 -19570-4 0  9993,2 56463  69.9997 220.8689 0002972 269.6173  90.4645 14.98330645 44137,6950.191,96.107,574.121,569.99,0.0
56463.0,STARLINK-6051,PAYLOAD,2024-02-24 13:59:00,14.98330489,0.0002978,69.9997,220.7006,269.6084,90.4734,-2.0212e-05,-3.34e-06,0.0,0 STARLINK-6051,1 56463U 23064R   24055.58265012 -.00000334  00000-0 -20212-4 0  9997,2 56463  69.9997 220.7006 0002978 269.6084  90.4734 14.98330489 43781,6950.191,96.107,574.126,569.987,0.0
56463.0,STARLINK-6051,PAYLOAD,2024-02-24 20:23:33,14.98331361,0.0002959,69.9998,220.0276,269.4101,90.6719,-3.1916e-06,-1.31e-06,0.0,0 STARLINK-6051,1 56463U 23064R   24055.84968887 -.00000131  00000-0 -31916-5 0  9995,2 56463  69.9998 220.0276 0002959 269.4101  90.6719 14.98331361 43821,6950.189,96.107,574.11,569.997,0.0
56463.0,STARLINK-6051,PAYLOAD,2024-02-25 12:24:53,14.98333261,0.0003051,69.9994,218.3437,269.5583,90.5227,3.8476e-05,3.66e-06,0.0,0 STARLINK-6051,1 56463U 23064R   24056.51728529  .00000366  00000-0  38476-4 0  9992,2 56463  69.9994 218.3437 0003051 269.5583  90.5227 14.98333261 44280,6950.183,96.107,574.168,569.927,0.0
56463.0,STARLINK-6051,PAYLOAD,2024-02-25 14:01:01,14.98333687,0.0003051,69.9994,218.1754,269.5769,90.5041,4.2969e-05,4.2e-06,0.0,0 STARLINK-6051,1 56463U 23064R   24056.58404477  .00000420  00000-0  42969-4 0  9995,2 56463  69.9994 218.1754 0003051 269.5769  90.5041 14.98333687 43933,6950.181,96.107,574.167,569.926,0.0
56463.0,STARLINK-6051,PAYLOAD,2024-02-25 20:25:33,14.98336827,0.0003045,69.9995,217.5022,269.7388,90.3423,7.5256e-05,8.05e-06,0.0,0 STARLINK-6051,1 56463U 23064R   24056.85108108  .00000805  00000-0  75256-4 0  9999,2 56463  69.9995 217.5022 0003045 269.7388  90.3423 14.98336827 43972,6950.172,96.107,574.153,569.92,0.0
56463.0,STARLINK-6051,PAYLOAD,2024-02-26 12:26:54,14.98325063,0.0003009,69.9994,215.8192,269.9173,90.1641,-1.5289e-05,-2.75e-06,0.0,0 STARLINK-6051,1 56463U 23064R   24057.51869087 -.00000275  00000-0 -15289-4 0  9996,2 56463  69.9994 215.8192 0003009 269.9173  90.1641 14.98325063 44436,6950.208,96.107,574.164,569.982,0.0
56463.0,STARLINK-6051,PAYLOAD,2024-02-26 14:03:02,14.98325166,0.0002993,69.9996,215.6512,269.7773,90.3043,-1.5627e-05,-2.79e-06,0.0,0 STARLINK-6051,1 56463U 23064R   24057.58545099 -.00000279  00000-0 -15627-4 0  9997,2 56463  69.9996 215.6512 0002993 269.7773  90.3043 14.98325166 44080,6950.208,96.107,574.153,569.993,0.0
56463.0,STARLINK-6051,PAYLOAD,2024-02-26 20:27:35,14.98328263,0.000298,69.9996,214.9779,269.7457,90.336,-4.9953e-06,-1.53e-06,0.0,0 STARLINK-6051,1 56463U 23064R   24057.85248918 -.00000153  00000-0 -49953-5 0  9998,2 56463  69.9996 214.9779 0002980 269.7457  90.3360 14.98328263 44120,6950.198,96.107,574.134,569.992,0.0
56463.0,STARLINK-6051,PAYLOAD,2024-02-27 12:28:55,14.98329584,0.0002919,69.9998,213.2939,270.0633,90.0191,-4.6274e-05,-6.45e-06,0.0,0 STARLINK-6051,1 56463U 23064R   24058.52009017 -.00000645  00000-0 -46274-4 0  9996,2 56463  69.9998 213.2939 0002919 270.0633  90.0191 14.98329584 44581,6950.194,96.107,574.088,570.03,0.0
56463.0,STARLINK-6051,PAYLOAD,2024-02-27 14:05:03,14.98328991,0.0002928,69.9998,213.1256,270.1032,89.9792,-5.0622e-05,-6.97e-06,0.0,0 STARLINK-6051,1 56463U 23064R   24058.58685065 -.00000697  00000-0 -50622-4 0  9994,2 56463  69.9998 213.1256 0002928 270.1032  89.9792 14.98328991 44233,6950.196,96.107,574.096,570.026,0.0
56463.0,STARLINK-6051,PAYLOAD,2024-02-27 20:29:36,14.98328691,0.0002898,70.0,212.4535,269.3513,90.7314,-5.0698e-05,-6.98e-06,0.0,0 STARLINK-6051,1 56463U 23064R   24058.85389115 -.00000698  00000-0 -50698-4 0  9995,2 56463  70.0000 212.4535 0002898 269.3513  90.7314 14.98328691 44273,6950.197,96.107,574.076,570.048,0.0
56463.0,STARLINK-6051,PAYLOAD,2024-02-28 12:30:56,14.98327875,0.0003062,69.9996,210.7698,269.774,90.3068,5.1072e-05,5.16e-06,0.0,0 STARLINK-6051,1 56463U 23064R   24059.52148970  .00000516  00000-0  51072-4 0  9996,2 56463  69.9996 210.7698 0003062 269.7740  90.3068 14.98327875 44731,6950.199,96.107,574.193,569.936,0.0
56463.0,STARLINK-6051,PAYLOAD,2024-02-28 14:07:04,14.98327651,0.0003069,69.9996,210.6015,269.7173,90.3634,4.7064e-05,4.69e-06,0.0,0 STARLINK-6051,1 56463U 23064R   24059.58824998  .00000469  00000-0  47064-4 0  9996,2 56463  69.9996 210.6015 0003069 269.7173  90.3634 14.98327651 44382,6950.2,96.107,574.198,569.932,0.0
56463.0,STARLINK-6051,PAYLOAD,2024-02-28 20:31:36,14.98328806,0.0002947,69.9999,209.927,271.5273,88.5549,9.4304e-05,1.032e-05,0.0,0 STARLINK-6051,1 56463U 23064R   24059.85528849  .00001032  00000-0  94304-4 0  9998,2 56463  69.9999 209.9270 0002947 271.5273  88.5549 14.98328806 44427,6950.197,96.107,574.11,570.013,0.0
56463.0,STARLINK-6051,PAYLOAD,2024-02-29 12:32:57,14.98323336,0.0002953,70.0,208.245,265.1287,94.9535,0.00018795,2.15e-05,0.0,0 STARLINK-6051,1 56463U 23064R   24060.52288874  .00002150  00000-0  18795-3 0  9996,2 56463  70.0000 208.2450 0002953 265.1287  94.9535 14.98323336 44885,6950.213,96.107,574.131,570.026,0.0
56463.0,STARLINK-6051,PAYLOAD,2024-02-29 14:09:05,14.98330209,0.0002917,69.9999,208.0768,265.7388,94.3438,7.4845e-05,8e-06,0.0,0 STARLINK-6051,1 56463U 23064R   24060.58964800  .00000800  00000-0  74845-4 0  9991,2 56463  69.9999 208.0768 0002917 265.7388  94.3438 14.98330209 44532,6950.192,96.107,574.085,570.03,0.0
56463.0,STARLINK-6051,PAYLOAD,2024-02-29 18:57:29,14.98333627,0.0003081,69.9996,207.571,268.7827,91.2979,8.1779e-05,8.83e-06,0.0,0 STARLINK-6051,1 56463U 23064R   24060.78992508  .00000883  00000-0  81779-4 0  9994,2 56463  69.9996 207.5710 0003081 268.7827  91.2979 14.98333627 44560,6950.182,96.107,574.188,569.905,0.0
56463.0,STARLINK-6051,PAYLOAD,2024-03-01 14:11:06,14.98328864,0.0002974,70.0002,205.551,267.3572,92.7247,6.366e-06,-1.7e-07,0.0,0 STARLINK-6051,1 56463U 23064R   24061.59104961 -.00000017  00000-0  63660-5 0  9992,2 56463  70.0002 205.5510 0002974 267.3572  92.7247 14.98328864 44683,6950.196,96.107,574.128,569.994,0.0
56463.0,STARLINK-6051,PAYLOAD,2024-03-01 18:59:30,14.98328445,0.0002906,70.0002,205.0458,264.1125,95.9703,1.8393e-05,1.26e-06,0.0,0 STARLINK-6051,1 56463U 23064R   24061.79132934  .00000126  00000-0  18393-4 0  9997,2 56463  70.0002 205.0458 0002906 264.1125  95.9703 14.98328445 45074,6950.198,96.107,574.082,570.043,0.0
56463.0,STARLINK-6051,PAYLOAD,2024-03-02 14:13:07,14.98331936,0.0003073,70.0003,203.0276,266.4223,93.6585,4.4215e-07,-8.8e-07,0.0,0 STARLINK-6051,1 56463U 23064R   24062.59244643 -.00000088  00000-0  44215-6 0  9999,2 56463  70.0003 203.0276 0003073 266.4223  93.6585 14.98331936 44836,6950.187,96.107,574.188,569.916,0.0
